start=new Date('2021-12-06T00:00:00.000Z').valueOf();
sats=[{"OBJECT_TYPE":"PAYLOAD","EPHEMERIS_TYPE":"0","FILE":"3233515","MEAN_MOTION_DDOT":"0.0000000000000","RA_OF_ASC_NODE":"261.0753","RCS_SIZE":"LARGE","PERIOD":"95.593","TLE_LINE2":"2 48657  53.0555 261.0753 0002357  58.1044 302.0174 15.06385739 29373","OBJECT_ID":"2021-044V","INCLINATION":"53.0555","OBJECT_NAME":"STARLINK-2734","BSTAR":"0.00014652000000","PERIAPSIS":"545.625","APOAPSIS":"548.890","CLASSIFICATION_TYPE":"U","ARG_OF_PERICENTER":"58.1044","TIME_SYSTEM":"UTC","TLE_LINE1":"1 48657U 21044V   21339.95779725  .00001900  00000-0  14652-3 0  9991","SEMIMAJOR_AXIS":"6925.392","ELEMENT_SET_NO":"999","MEAN_MOTION_DOT":"0.00001900","LAUNCH_DATE":"2021-05-26","MEAN_ANOMALY":"302.0174","MEAN_MOTION":"15.06385739","NORAD_CAT_ID":"48657","GP_ID":"191171977","REV_AT_EPOCH":"2937","SITE":"AFETR","REF_FRAME":"TEME","MEAN_ELEMENT_THEORY":"SGP4","EPOCH":"2021-12-05T22:59:13.682400","ECCENTRICITY":"0.00023570","COUNTRY_CODE":"US","CENTER_NAME":"EARTH","DECAY_DATE":null},{"MEAN_MOTION_DOT":"0.00001612","ELEMENT_SET_NO":"999","LAUNCH_DATE":"2021-05-26","MEAN_ANOMALY":"294.4482","MEAN_MOTION":"15.06390590","NORAD_CAT_ID":"48658","GP_ID":"191171821","REV_AT_EPOCH":"2937","SITE":"AFETR","REF_FRAME":"TEME","MEAN_ELEMENT_THEORY":"SGP4","EPOCH":"2021-12-05T22:53:54.352320","COUNTRY_CODE":"US","ECCENTRICITY":"0.00018540","CENTER_NAME":"EARTH","DECAY_DATE":null,"OBJECT_TYPE":"PAYLOAD","EPHEMERIS_TYPE":"0","FILE":"3233515","RA_OF_ASC_NODE":"261.1072","MEAN_MOTION_DDOT":"0.0000000000000","RCS_SIZE":"LARGE","PERIOD":"95.593","OBJECT_ID":"2021-044W","TLE_LINE2":"2 48658  53.0563 261.1072 0001854  65.6700 294.4482 15.06390590 29378","INCLINATION":"53.0563","OBJECT_NAME":"STARLINK-2647","BSTAR":"0.00012711000000","APOAPSIS":"548.526","PERIAPSIS":"545.958","ARG_OF_PERICENTER":"65.6700","CLASSIFICATION_TYPE":"U","TIME_SYSTEM":"UTC","TLE_LINE1":"1 48658U 21044W   21339.95410130  .00001612  00000-0  12711-3 0  9998","SEMIMAJOR_AXIS":"6925.377"},{"SITE":"AFETR","MEAN_ELEMENT_THEORY":"SGP4","REF_FRAME":"TEME","EPOCH":"2021-12-05T22:48:36.201600","COUNTRY_CODE":"US","ECCENTRICITY":"0.00019950","DECAY_DATE":null,"CENTER_NAME":"EARTH","ELEMENT_SET_NO":"999","MEAN_MOTION_DOT":"0.00000484","LAUNCH_DATE":"2021-05-26","MEAN_MOTION":"15.06391516","MEAN_ANOMALY":"294.7979","NORAD_CAT_ID":"48659","GP_ID":"191172603","REV_AT_EPOCH":"2937","OBJECT_NAME":"STARLINK-2717","PERIAPSIS":"545.858","APOAPSIS":"548.621","BSTAR":"0.00005143200000","CLASSIFICATION_TYPE":"U","ARG_OF_PERICENTER":"65.3218","TLE_LINE1":"1 48659U 21044X   21339.95041900  .00000484  00000-0  51432-4 0  9994","TIME_SYSTEM":"UTC","SEMIMAJOR_AXIS":"6925.375","OBJECT_TYPE":"PAYLOAD","EPHEMERIS_TYPE":"0","MEAN_MOTION_DDOT":"0.0000000000000","RA_OF_ASC_NODE":"261.1168","FILE":"3233515","RCS_SIZE":"LARGE","PERIOD":"95.593","INCLINATION":"53.0564","OBJECT_ID":"2021-044X","TLE_LINE2":"2 48659  53.0564 261.1168 0001995  65.3218 294.7979 15.06391516 29376"},{"DECAY_DATE":null,"CENTER_NAME":"EARTH","COUNTRY_CODE":"US","ECCENTRICITY":"0.00020990","EPOCH":"2021-12-05T22:43:17.539392","SITE":"AFETR","MEAN_ELEMENT_THEORY":"SGP4","REF_FRAME":"TEME","GP_ID":"191172447","REV_AT_EPOCH":"2937","NORAD_CAT_ID":"48660","MEAN_MOTION":"15.06393697","MEAN_ANOMALY":"299.1035","MEAN_MOTION_DOT":"0.00000944","ELEMENT_SET_NO":"999","LAUNCH_DATE":"2021-05-26","SEMIMAJOR_AXIS":"6925.368","TLE_LINE1":"1 48660U 21044Y   21339.94673078  .00000944  00000-0  82307-4 0  9998","TIME_SYSTEM":"UTC","APOAPSIS":"548.687","PERIAPSIS":"545.779","BSTAR":"0.00008230700000","CLASSIFICATION_TYPE":"U","ARG_OF_PERICENTER":"61.0165","OBJECT_NAME":"STARLINK-2688","PERIOD":"95.593","INCLINATION":"53.0556","TLE_LINE2":"2 48660  53.0556 261.1271 0002099  61.0165 299.1035 15.06393697 29378","OBJECT_ID":"2021-044Y","RCS_SIZE":"LARGE","MEAN_MOTION_DDOT":"0.0000000000000","RA_OF_ASC_NODE":"261.1271","FILE":"3233515","OBJECT_TYPE":"PAYLOAD","EPHEMERIS_TYPE":"0"},{"MEAN_MOTION_DDOT":"0.0000000000000","RA_OF_ASC_NODE":"251.1115","FILE":"3233515","OBJECT_TYPE":"PAYLOAD","EPHEMERIS_TYPE":"0","PERIOD":"95.592","INCLINATION":"53.0538","OBJECT_ID":"2021-044Z","TLE_LINE2":"2 48661  53.0538 251.1115 0002135  63.0189 297.1018 15.06407765 29511","RCS_SIZE":"LARGE","PERIAPSIS":"545.711","APOAPSIS":"548.668","BSTAR":"0.00020732000000","CLASSIFICATION_TYPE":"U","ARG_OF_PERICENTER":"63.0189","OBJECT_NAME":"STARLINK-2708","SEMIMAJOR_AXIS":"6925.325","TLE_LINE1":"1 48661U 21044Z   21339.94765651  .00002808  00000-0  20732-3 0  9992","TIME_SYSTEM":"UTC","MEAN_MOTION":"15.06407765","MEAN_ANOMALY":"297.1018","ELEMENT_SET_NO":"999","MEAN_MOTION_DOT":"0.00002808","LAUNCH_DATE":"2021-05-26","GP_ID":"191171665","REV_AT_EPOCH":"2951","NORAD_CAT_ID":"48661","EPOCH":"2021-12-05T22:44:37.522464","SITE":"AFETR","REF_FRAME":"TEME","MEAN_ELEMENT_THEORY":"SGP4","DECAY_DATE":null,"CENTER_NAME":"EARTH","ECCENTRICITY":"0.00021350","COUNTRY_CODE":"US"},{"ECCENTRICITY":"0.00020890","COUNTRY_CODE":"US","CENTER_NAME":"EARTH","DECAY_DATE":null,"SITE":"AFETR","MEAN_ELEMENT_THEORY":"SGP4","REF_FRAME":"TEME","EPOCH":"2021-12-05T22:39:19.304352","NORAD_CAT_ID":"48662","GP_ID":"191172134","REV_AT_EPOCH":"2951","ELEMENT_SET_NO":"999","MEAN_MOTION_DOT":"0.00000446","LAUNCH_DATE":"2021-05-26","MEAN_ANOMALY":"300.2702","MEAN_MOTION":"15.06390633","TIME_SYSTEM":"UTC","TLE_LINE1":"1 48662U 21044AA  21339.94397343  .00000446  00000-0  48851-4 0  9991","SEMIMAJOR_AXIS":"6925.377","OBJECT_NAME":"STARLINK-2726","BSTAR":"0.00004885100000","APOAPSIS":"548.689","PERIAPSIS":"545.796","CLASSIFICATION_TYPE":"U","ARG_OF_PERICENTER":"59.8494","RCS_SIZE":"LARGE","PERIOD":"95.593","TLE_LINE2":"2 48662  53.0565 251.1397 0002089  59.8494 300.2702 15.06390633 29515","OBJECT_ID":"2021-044AA","INCLINATION":"53.0565","OBJECT_TYPE":"PAYLOAD","EPHEMERIS_TYPE":"0","FILE":"3233515","RA_OF_ASC_NODE":"251.1397","MEAN_MOTION_DDOT":"0.0000000000000"},{"MEAN_ANOMALY":"295.1117","MEAN_MOTION":"15.06407994","LAUNCH_DATE":"2021-05-26","MEAN_MOTION_DOT":"-0.00002111","ELEMENT_SET_NO":"999","REV_AT_EPOCH":"2951","GP_ID":"191172291","NORAD_CAT_ID":"48663","EPOCH":"2021-12-05T22:33:59.566464","MEAN_ELEMENT_THEORY":"SGP4","REF_FRAME":"TEME","SITE":"AFETR","CENTER_NAME":"EARTH","DECAY_DATE":null,"ECCENTRICITY":"0.00024350","COUNTRY_CODE":"US","FILE":"3233515","RA_OF_ASC_NODE":"251.1464","MEAN_MOTION_DDOT":"0.0000000000000","EPHEMERIS_TYPE":"0","OBJECT_TYPE":"PAYLOAD","TLE_LINE2":"2 48663  53.0555 251.1464 0002435  65.0125 295.1117 15.06407994 29516","OBJECT_ID":"2021-044AB","INCLINATION":"53.0555","PERIOD":"95.592","RCS_SIZE":"LARGE","ARG_OF_PERICENTER":"65.0125","CLASSIFICATION_TYPE":"U","BSTAR":"-0.00012283000000","PERIAPSIS":"545.503","APOAPSIS":"548.875","OBJECT_NAME":"STARLINK-2667","SEMIMAJOR_AXIS":"6925.324","TIME_SYSTEM":"UTC","TLE_LINE1":"1 48663U 21044AB  21339.94027276 -.00002111  00000-0 -12283-3 0  9999"},{"OBJECT_TYPE":"PAYLOAD","EPHEMERIS_TYPE":"0","FILE":"3233515","MEAN_MOTION_DDOT":"0.0000000000000","RA_OF_ASC_NODE":"251.1720","RCS_SIZE":"LARGE","PERIOD":"95.593","TLE_LINE2":"2 48664  53.0563 251.1720 0002056  66.6384 293.4821 15.06393323 29517","OBJECT_ID":"2021-044AC","INCLINATION":"53.0563","OBJECT_NAME":"STARLINK-2709","BSTAR":"0.00003869600000","PERIAPSIS":"545.810","APOAPSIS":"548.658","CLASSIFICATION_TYPE":"U","ARG_OF_PERICENTER":"66.6384","TIME_SYSTEM":"UTC","TLE_LINE1":"1 48664U 21044AC  21339.93659406  .00000295  00000-0  38696-4 0  9991","SEMIMAJOR_AXIS":"6925.369","MEAN_MOTION_DOT":"0.00000295","ELEMENT_SET_NO":"999","LAUNCH_DATE":"2021-05-26","MEAN_ANOMALY":"293.4821","MEAN_MOTION":"15.06393323","NORAD_CAT_ID":"48664","GP_ID":"191172760","REV_AT_EPOCH":"2951","SITE":"AFETR","MEAN_ELEMENT_THEORY":"SGP4","REF_FRAME":"TEME","EPOCH":"2021-12-05T22:28:41.726784","COUNTRY_CODE":"US","ECCENTRICITY":"0.00020560","CENTER_NAME":"EARTH","DECAY_DATE":null},{"OBJECT_ID":"2021-044AD","TLE_LINE2":"2 48665  53.0563 251.1087 0001774  63.3787 296.7383 15.06392126 29510","INCLINATION":"53.0563","PERIOD":"95.593","RCS_SIZE":"LARGE","FILE":"3233515","RA_OF_ASC_NODE":"251.1087","MEAN_MOTION_DDOT":"0.0000000000000","EPHEMERIS_TYPE":"0","OBJECT_TYPE":"PAYLOAD","SEMIMAJOR_AXIS":"6925.373","TIME_SYSTEM":"UTC","TLE_LINE1":"1 48665U 21044AD  21339.95039408  .00000627  00000-0  61020-4 0  9994","ARG_OF_PERICENTER":"63.3787","CLASSIFICATION_TYPE":"U","BSTAR":"0.00006102000000","APOAPSIS":"548.466","PERIAPSIS":"546.009","OBJECT_NAME":"STARLINK-2653","REV_AT_EPOCH":"2951","GP_ID":"191171978","NORAD_CAT_ID":"48665","MEAN_ANOMALY":"296.7383","MEAN_MOTION":"15.06392126","LAUNCH_DATE":"2021-05-26","MEAN_MOTION_DOT":"0.00000627","ELEMENT_SET_NO":"999","CENTER_NAME":"EARTH","DECAY_DATE":null,"COUNTRY_CODE":"US","ECCENTRICITY":"0.00017740","EPOCH":"2021-12-05T22:48:34.048512","REF_FRAME":"TEME","MEAN_ELEMENT_THEORY":"SGP4","SITE":"AFETR"},{"BSTAR":"0.00014628000000","APOAPSIS":"548.505","PERIAPSIS":"545.988","ARG_OF_PERICENTER":"61.5709","CLASSIFICATION_TYPE":"U","OBJECT_NAME":"STARLINK-2666","SEMIMAJOR_AXIS":"6925.381","TIME_SYSTEM":"UTC","TLE_LINE1":"1 48666U 21044AE  21339.91722293  .00001897  00000-0  14628-3 0  9993","FILE":"3233515","RA_OF_ASC_NODE":"251.2544","MEAN_MOTION_DDOT":"0.0000000000000","OBJECT_TYPE":"PAYLOAD","EPHEMERIS_TYPE":"0","PERIOD":"95.593","TLE_LINE2":"2 48666  53.0551 251.2544 0001817  61.5709 298.5463 15.06389308 29505","OBJECT_ID":"2021-044AE","INCLINATION":"53.0551","RCS_SIZE":"LARGE","EPOCH":"2021-12-05T22:00:48.061152","SITE":"AFETR","REF_FRAME":"TEME","MEAN_ELEMENT_THEORY":"SGP4","CENTER_NAME":"EARTH","DECAY_DATE":null,"COUNTRY_CODE":"US","ECCENTRICITY":"0.00018170","MEAN_ANOMALY":"298.5463","MEAN_MOTION":"15.06389308","ELEMENT_SET_NO":"999","MEAN_MOTION_DOT":"0.00001897","LAUNCH_DATE":"2021-05-26","GP_ID":"191171822","REV_AT_EPOCH":"2950","NORAD_CAT_ID":"48666"}];
